{
  "type": "FeatureCollection",
  "features": [
    {
      "type": "Feature",
      "properties": {
        "norad_id": 66807,
        "name": "STARLINK-36000",
        "group": "last-30-days",
        "lat": -5.3834283757721915,
        "lon": -167.48853327197082,
        "alt_km": 394.9664656887653,
        "timestamp": "2025-12-21T14:40:46.634448+00:00",
        "meta_object_name": "STARLINK-36000",
        "meta_object_id": "2025-278S",
        "meta_epoch": "2025-12-21T06:00:00.999648",
        "meta_mean_motion": 15.59218159,
        "meta_eccentricity": 0.00014322,
        "meta_inclination": 42.9996,
        "meta_ra_of_asc_node": 200.4565,
        "meta_arg_of_pericenter": 270.5406,
        "meta_mean_anomaly": 210.275,
        "meta_ephemeris_type": 0,
        "meta_classification_type": "U",
        "meta_norad_cat_id": 66807,
        "meta_element_set_no": 999,
        "meta_rev_at_epoch": 438,
        "meta_bstar": -0.028487701,
        "meta_mean_motion_dot": -0.02013551,
        "meta_mean_motion_ddot": 0,
        "tle_line1": "1 66807U 25278S   25355.25001157 -.02013551  00000+0 -28488-1 0  9991",
        "tle_line2": "2 66807  42.9996 200.4565 0001432 270.5406 210.2750 15.59218159  4382"
      },
      "geometry": {
        "type": "Point",
        "coordinates": [
          -167.48853327197082,
          -5.3834283757721915
        ]
      }
    },
    {
      "type": "Feature",
      "properties": {
        "norad_id": 66808,
        "name": "STARLINK-36071",
        "group": "last-30-days",
        "lat": -4.081381674468603,
        "lon": -166.0807293384688,
        "alt_km": 394.8283782536928,
        "timestamp": "2025-12-21T14:40:46.634460+00:00",
        "meta_object_name": "STARLINK-36071",
        "meta_object_id": "2025-278T",
        "meta_epoch": "2025-12-21T06:00:00.999648",
        "meta_mean_motion": 15.59219295,
        "meta_eccentricity": 0.0001421,
        "meta_inclination": 42.9993,
        "meta_ra_of_asc_node": 200.4518,
        "meta_arg_of_pericenter": 271.5262,
        "meta_mean_anomaly": 211.207,
        "meta_ephemeris_type": 0,
        "meta_classification_type": "U",
        "meta_norad_cat_id": 66808,
        "meta_element_set_no": 999,
        "meta_rev_at_epoch": 432,
        "meta_bstar": -0.028525401,
        "meta_mean_motion_dot": -0.02015949,
        "meta_mean_motion_ddot": 0,
        "tle_line1": "1 66808U 25278T   25355.25001157 -.02015949  00000+0 -28525-1 0  9997",
        "tle_line2": "2 66808  42.9993 200.4518 0001421 271.5262 211.2070 15.59219295  4329"
      },
      "geometry": {
        "type": "Point",
        "coordinates": [
          -166.0807293384688,
          -4.081381674468603
        ]
      }
    },
    {
      "type": "Feature",
      "properties": {
        "norad_id": 66809,
        "name": "STARLINK-35979",
        "group": "last-30-days",
        "lat": -0.16560260160279786,
        "lon": -161.88261560472014,
        "alt_km": 394.35986049445,
        "timestamp": "2025-12-21T14:40:46.634470+00:00",
        "meta_object_name": "STARLINK-35979",
        "meta_object_id": "2025-278U",
        "meta_epoch": "2025-12-21T06:00:00.999648",
        "meta_mean_motion": 15.59216598,
        "meta_eccentricity": 0.0001346,
        "meta_inclination": 42.9995,
        "meta_ra_of_asc_node": 200.4359,
        "meta_arg_of_pericenter": 275.0978,
        "meta_mean_anomaly": 213.3848,
        "meta_ephemeris_type": 0,
        "meta_classification_type": "U",
        "meta_norad_cat_id": 66809,
        "meta_element_set_no": 999,
        "meta_rev_at_epoch": 432,
        "meta_bstar": -0.028403367,
        "meta_mean_motion_dot": -0.02008168,
        "meta_mean_motion_ddot": 0,
        "tle_line1": "1 66809U 25278U   25355.25001157 -.02008168  00000+0 -28403-1 0  9998",
        "tle_line2": "2 66809  42.9995 200.4359 0001346 275.0978 213.3848 15.59216598  4323"
      },
      "geometry": {
        "type": "Point",
        "coordinates": [
          -161.88261560472014,
          -0.16560260160279786
        ]
      }
    },
    {
      "type": "Feature",
      "properties": {
        "norad_id": 66810,
        "name": "STARLINK-36046",
        "group": "last-30-days",
        "lat": -2.7780360949661635,
        "lon": -164.67876354090996,
        "alt_km": 394.7363545821663,
        "timestamp": "2025-12-21T14:40:46.634480+00:00",
        "meta_object_name": "STARLINK-36046",
        "meta_object_id": "2025-278V",
        "meta_epoch": "2025-12-21T06:00:00.999648",
        "meta_mean_motion": 15.59218183,
        "meta_eccentricity": 0.00014648,
        "meta_inclination": 42.9995,
        "meta_ra_of_asc_node": 200.447,
        "meta_arg_of_pericenter": 269.4445,
        "meta_mean_anomaly": 215.2024,
        "meta_ephemeris_type": 0,
        "meta_classification_type": "U",
        "meta_norad_cat_id": 66810,
        "meta_element_set_no": 999,
        "meta_rev_at_epoch": 409,
        "meta_bstar": -0.028443069,
        "meta_mean_motion_dot": -0.02010818,
        "meta_mean_motion_ddot": 0,
        "tle_line1": "1 66810U 25278V   25355.25001157 -.02010818  00000+0 -28443-1 0  9999",
        "tle_line2": "2 66810  42.9995 200.4470 0001464 269.4445 215.2024 15.59218183  4099"
      },
      "geometry": {
        "type": "Point",
        "coordinates": [
          -164.67876354090996,
          -2.7780360949661635
        ]
      }
    },
    {
      "type": "Feature",
      "properties": {
        "norad_id": 66811,
        "name": "STARLINK-36045",
        "group": "last-30-days",
        "lat": -1.4721210798734077,
        "lon": -163.27907579907836,
        "alt_km": 394.6024309098575,
        "timestamp": "2025-12-21T14:40:46.634490+00:00",
        "meta_object_name": "STARLINK-36045",
        "meta_object_id": "2025-278W",
        "meta_epoch": "2025-12-21T06:00:00.999648",
        "meta_mean_motion": 15.59216818,
        "meta_eccentricity": 0.00014891,
        "meta_inclination": 42.9994,
        "meta_ra_of_asc_node": 200.4421,
        "meta_arg_of_pericenter": 269.5459,
        "meta_mean_anomaly": 217.0181,
        "meta_ephemeris_type": 0,
        "meta_classification_type": "U",
        "meta_norad_cat_id": 66811,
        "meta_element_set_no": 999,
        "meta_rev_at_epoch": 432,
        "meta_bstar": -0.028405094,
        "meta_mean_motion_dot": -0.02008396,
        "meta_mean_motion_ddot": 0,
        "tle_line1": "1 66811U 25278W   25355.25001157 -.02008396  00000+0 -28405-1 0  9996",
        "tle_line2": "2 66811  42.9994 200.4421 0001489 269.5459 217.0181 15.59216818  4321"
      },
      "geometry": {
        "type": "Point",
        "coordinates": [
          -163.27907579907836,
          -1.4721210798734077
        ]
      }
    },
    {
      "type": "Feature",
      "properties": {
        "norad_id": 66812,
        "name": "STARLINK-36054",
        "group": "last-30-days",
        "lat": 1.1425911176420946,
        "lon": -160.48206235802687,
        "alt_km": 394.20688806001635,
        "timestamp": "2025-12-21T14:40:46.634500+00:00",
        "meta_object_name": "STARLINK-36054",
        "meta_object_id": "2025-278X",
        "meta_epoch": "2025-12-21T06:00:00.999648",
        "meta_mean_motion": 15.59220617,
        "meta_eccentricity": 0.00014741,
        "meta_inclination": 42.9995,
        "meta_ra_of_asc_node": 200.4323,
        "meta_arg_of_pericenter": 275.3376,
        "meta_mean_anomaly": 215.0601,
        "meta_ephemeris_type": 0,
        "meta_classification_type": "U",
        "meta_norad_cat_id": 66812,
        "meta_element_set_no": 999,
        "meta_rev_at_epoch": 432,
        "meta_bstar": -0.028484494,
        "meta_mean_motion_dot": -0.0201355,
        "meta_mean_motion_ddot": 0,
        "tle_line1": "1 66812U 25278X   25355.25001157 -.02013550  00000+0 -28484-1 0  9992",
        "tle_line2": "2 66812  42.9995 200.4323 0001474 275.3376 215.0601 15.59220617  4328"
      },
      "geometry": {
        "type": "Point",
        "coordinates": [
          -160.48206235802687,
          1.1425911176420946
        ]
      }
    },
    {
      "type": "Feature",
      "properties": {
        "norad_id": 66813,
        "name": "STARLINK-36042",
        "group": "last-30-days",
        "lat": 2.4486222060260103,
        "lon": -159.08380544736903,
        "alt_km": 394.0312110062205,
        "timestamp": "2025-12-21T14:40:46.634510+00:00",
        "meta_object_name": "STARLINK-36042",
        "meta_object_id": "2025-278Y",
        "meta_epoch": "2025-12-21T06:00:00.999648",
        "meta_mean_motion": 15.59220171,
        "meta_eccentricity": 0.00014324,
        "meta_inclination": 42.9994,
        "meta_ra_of_asc_node": 200.4267,
        "meta_arg_of_pericenter": 277.3048,
        "meta_mean_anomaly": 215.0109,
        "meta_ephemeris_type": 0,
        "meta_classification_type": "U",
        "meta_norad_cat_id": 66813,
        "meta_element_set_no": 999,
        "meta_rev_at_epoch": 432,
        "meta_bstar": -0.028494607,
        "meta_mean_motion_dot": -0.02014114,
        "meta_mean_motion_ddot": 0,
        "tle_line1": "1 66813U 25278Y   25355.25001157 -.02014114  00000+0 -28495-1 0  9992",
        "tle_line2": "2 66813  42.9994 200.4267 0001432 277.3048 215.0109 15.59220171  4325"
      },
      "geometry": {
        "type": "Point",
        "coordinates": [
          -159.08380544736903,
          2.4486222060260103
        ]
      }
    }
  ]
}